{
  "type": "FeatureCollection",
  "features": [
    {
      "type": "Feature",
      "geometry": {
        "type": "Polygon",
        "coordinates": [
          [
            [
              -95.0665722798024,
              29.196116778149
            ],
            [
              -95.1607301104475,
              29.2002714103103
            ],
            [
              -95.1649880916676,
              29.1177902101613
            ],
            [
              -95.197551592837,
              29.1054653039153
            ],
            [
              -95.2486180981957,
              28.9786377220155
            ],
            [
              -95.5268072924589,
              28.803496708631
            ],
            [
              -95.5447595161004,
              28.8304831941276
            ],
            [
              -95.5820687853256,
              28.8334001241778
            ],
            [
              -95.5914526208389,
              28.8627361818844
            ],
            [
              -95.6502838782614,
              28.9124583206148
            ],
            [
              -95.6558449900943,
              28.9457595113064
            ],
            [
              -95.6842497147794,
              28.9606845140974
            ],
            [
              -95.7688617186797,
              28.9773631872326
            ],
            [
              -95.7704783155352,
              29.0072829210518
            ],
            [
              -95.7993407807131,
              29.0345920939102
            ],
            [
              -95.7890709925167,
              29.0727685109522
            ],
            [
              -95.8074656744593,
              29.0909340118241
            ],
            [
              -95.8232966780967,
              29.129202277428
            ],
            [
              -95.8518159933169,
              29.1541769012476
            ],
            [
              -95.8535095191712,
              29.1726053076199
            ],
            [
              -95.8406536215205,
              29.1789983923267
            ],
            [
              -95.8468332217806,
              29.2122904137033
            ],
            [
              -95.8766801191204,
              29.2322525822722
            ],
            [
              -95.844368592799,
              29.26177140463
            ],
            [
              -95.8474966761141,
              29.2724484761845
            ],
            [
              -95.8052746226099,
              29.3112081031028
            ],
            [
              -95.7924568009283,
              29.3061232258048
            ],
            [
              -95.7683625867594,
              29.3272119250159
            ],
            [
              -95.6853448003696,
              29.3032817224358
            ],
            [
              -95.6442135845246,
              29.2993386061677
            ],
            [
              -95.6398876882087,
              29.3221136822755
            ],
            [
              -95.630053209356,
              29.3299791931962
            ],
            [
              -95.5933700955559,
              29.3307873880159
            ],
            [
              -95.5789427223679,
              29.3857328244379
            ],
            [
              -95.5559625022637,
              29.4040675173026
            ],
            [
              -95.5643323255085,
              29.4337796205318
            ],
            [
              -95.4687180242937,
              29.4380870746097
            ],
            [
              -95.4212310744543,
              29.5865851150835
            ],
            [
              -95.398288774907,
              29.5837812214473
            ],
            [
              -95.3852040070099,
              29.5924020870674
            ],
            [
              -95.3451864744054,
              29.5943662890278
            ],
            [
              -95.3320711939291,
              29.6034353113932
            ],
            [
              -95.289955597726,
              29.6052889117295
            ],
            [
              -95.2728423923078,
              29.6013350202211
            ],
            [
              -95.252936690142,
              29.5729409153641
            ],
            [
              -95.2551645228593,
              29.5615677011272
            ],
            [
              -95.2165434199425,
              29.5667549950113
            ],
            [
              -95.2360139163728,
              29.4744628868476
            ],
            [
              -95.0606135201625,
              29.2049247081554
            ],
            [
              -95.0665722798024,
              29.196116778149
            ]
          ]
        ]
      },
      "properties": {
        "name": "Brazoria"
      }
    },
    {
      "type": "Feature",
      "geometry": {
        "type": "Polygon",
        "coordinates": [
          [
            [
              -94.3771943761142,
              29.5521985779611
            ],
            [
              -94.3846029236026,
              29.6003653004063
            ],
            [
              -94.4103526912649,
              29.6003158793527
            ],
            [
              -94.4361558170879,
              29.5681326198328
            ],
            [
              -94.4604178763446,
              29.5666183877592
            ],
            [
              -94.5126117930142,
              29.5476964961069
            ],
            [
              -94.5338906130501,
              29.5542135996842
            ],
            [
              -94.564630197598,
              29.5792274909659
            ],
            [
              -94.7882837253915,
              29.5387866157507
            ],
            [
              -94.7066169883512,
              29.6587418219704
            ],
            [
              -94.7004757230803,
              29.7547909144884
            ],
            [
              -94.735923103323,
              29.7932075986653
            ],
            [
              -94.8296148012209,
              29.7600810911947
            ],
            [
              -94.8873631988064,
              29.6687659036075
            ],
            [
              -94.9327901092122,
              29.6824361089546
            ],
            [
              -94.9190874227324,
              29.7000728977998
            ],
            [
              -94.9300283840641,
              29.7189326246045
            ],
            [
              -94.9438609950749,
              29.7250801063602
            ],
            [
              -94.9203769806869,
              29.7648107999984
            ],
            [
              -94.9230702208948,
              29.8066739033131
            ],
            [
              -94.9149140893129,
              29.8365629173369
            ],
            [
              -94.9416482891371,
              29.8387241818635
            ],
            [
              -94.9550686954059,
              29.8604406942289
            ],
            [
              -94.9795979080942,
              29.8730347742642
            ],
            [
              -94.9829700920434,
              29.8869465936513
            ],
            [
              -94.4504546126498,
              29.8960160822532
            ],
            [
              -94.3680701824466,
              29.8977592881812
            ],
            [
              -94.3571821130392,
              29.5601288957349
            ],
            [
              -94.3771943761142,
              29.5521985779611
            ]
          ]
        ]
      },
      "properties": {
        "name": "Chambers"
      }
    },
    {
      "type": "Feature",
      "geometry": {
        "type": "Polygon",
        "coordinates": [
          [
            [
              -95.8474966761141,
              29.2724484761845
            ],
            [
              -95.8817460879441,
              29.2778885219772
            ],
            [
              -95.9168347252135,
              29.3196051752724
            ],
            [
              -95.9430882871596,
              29.3283943004128
            ],
            [
              -95.9613687929992,
              29.3506468809785
            ],
            [
              -95.9500313235494,
              29.3685772951193
            ],
            [
              -95.9728818781428,
              29.3831949963484
            ],
            [
              -95.9883700944509,
              29.4204750998994
            ],
            [
              -96.0408771147351,
              29.4398401233052
            ],
            [
              -96.0407246036429,
              29.4540550999314
            ],
            [
              -96.065101201631,
              29.4815487987782
            ],
            [
              -96.0309358159531,
              29.49452410474
            ],
            [
              -96.0293412876182,
              29.5059334781965
            ],
            [
              -96.0607524079297,
              29.5180867058558
            ],
            [
              -96.0596002860919,
              29.5423531166519
            ],
            [
              -96.048712890137,
              29.5506725863704
            ],
            [
              -96.0671154980977,
              29.5719788107432
            ],
            [
              -96.0682522859396,
              29.5921997922932
            ],
            [
              -96.0836335787105,
              29.6001418177801
            ],
            [
              -96.0279908081133,
              29.599906990069
            ],
            [
              -96.0212386178048,
              29.631302724581
            ],
            [
              -96.0306688179335,
              29.6536579807531
            ],
            [
              -96.0233672975907,
              29.6634785761232
            ],
            [
              -96.0375736229423,
              29.6740831220226
            ],
            [
              -96.0510552097816,
              29.6667800993625
            ],
            [
              -96.0586466773333,
              29.6840201210695
            ],
            [
              -96.0227722245893,
              29.6868407992144
            ],
            [
              -96.0271440192842,
              29.7053395036681
            ],
            [
              -96.0195296025428,
              29.7105634748123
            ],
            [
              -96.0289521874777,
              29.7223696154071
            ],
            [
              -96.0415944970736,
              29.7219118749143
            ],
            [
              -96.0457297027202,
              29.7344408890761
            ],
            [
              -95.9747284849337,
              29.7345911207905
            ],
            [
              -95.9759491953197,
              29.7419723157461
            ],
            [
              -95.9528085899094,
              29.742031216939
            ],
            [
              -95.8343965742214,
              29.7957902890529
            ],
            [
              -95.6080035970168,
              29.6685977994994
            ],
            [
              -95.5006400878466,
              29.6229309845867
            ],
            [
              -95.5018305964776,
              29.5816953836021
            ],
            [
              -95.4849155933143,
              29.5933794220759
            ],
            [
              -95.4894856938723,
              29.6155879174041
            ],
            [
              -95.4212310744543,
              29.5865851150835
            ],
            [
              -95.4687180242937,
              29.4380870746097
            ],
            [
              -95.5643323255085,
              29.4337796205318
            ],
            [
              -95.5559625022637,
              29.4040675173026
            ],
            [
              -95.5789427223679,
              29.3857328244379
            ],
            [
              -95.5933700955559,
              29.3307873880159
            ],
            [
              -95.630053209356,
              29.3299791931962
            ],
            [
              -95.6398876882087,
              29.3221136822755
            ],
            [
              -95.6442135845246,
              29.2993386061677
            ],
            [
              -95.6853448003696,
              29.3032817224358
            ],
            [
              -95.7683625867594,
              29.3272119250159
            ],
            [
              -95.7924568009283,
              29.3061232258048
            ],
            [
              -95.8052746226099,
              29.3112081031028
            ],
            [
              -95.8474966761141,
              29.2724484761845
            ]
          ]
        ]
      },
      "properties": {
        "name": "Fort Bend"
      }
    },
    {
      "type": "Feature",
      "geometry": {
        "type": "MultiPolygon",
        "coordinates": [
          [
            [
              [
                -94.5338906130501,
                29.5542135996842
              ],
              [
                -94.5126117930142,
                29.5476964961069
              ],
              [
                -94.4604178763446,
                29.5666183877592
              ],
              [
                -94.4361558170879,
                29.5681326198328
              ],
              [
                -94.4103526912649,
                29.6003158793527
              ],
              [
                -94.3846029236026,
                29.6003653004063
              ],
              [
                -94.3771943761142,
                29.5521985779611
              ],
              [
                -94.6827121179465,
                29.4331382865232
              ],
              [
                -94.7667437093886,
                29.3642277243575
              ],
              [
                -94.785444086968,
                29.3834949935408
              ],
              [
                -94.6821097923795,
                29.4753428820659
              ],
              [
                -94.5728852748954,
                29.5332829027935
              ],
              [
                -94.5014725258194,
                29.5177541757265
              ],
              [
                -94.469985408982,
                29.5570096191065
              ],
              [
                -94.5110018788797,
                29.545377281064
              ],
              [
                -94.5338906130501,
                29.5542135996842
              ]
            ]
          ],
          [
            [
              [
                -95.0665722798024,
                29.196116778149
              ],
              [
                -95.0606135201625,
                29.2049247081554
              ],
              [
                -95.2360139163728,
                29.4744628868476
              ],
              [
                -95.2165434199425,
                29.5667549950113
              ],
              [
                -95.2032907033496,
                29.5689253252448
              ],
              [
                -95.1937612984854,
                29.5340883001951
              ],
              [
                -95.1747024887568,
                29.5098403834411
              ],
              [
                -95.1613124914592,
                29.5055753050676
              ],
              [
                -95.1148708953322,
                29.5190953823083
              ],
              [
                -95.1077067074979,
                29.5339151192912
              ],
              [
                -95.0855960181963,
                29.5439300834174
              ],
              [
                -95.0649197827474,
                29.5650188862365
              ],
              [
                -95.0143278023903,
                29.5594945034676
              ],
              [
                -94.9113575865912,
                29.5005638858975
              ],
              [
                -94.9830149025376,
                29.4607585944426
              ],
              [
                -94.9439586974934,
                29.4649128121716
              ],
              [
                -94.9527093840363,
                29.4244668083565
              ],
              [
                -94.9136455119943,
                29.4203452789763
              ],
              [
                -94.9171936742656,
                29.4480543790194
              ],
              [
                -94.8913362060053,
                29.3995579238628
              ],
              [
                -94.8155505743496,
                29.3711662019919
              ],
              [
                -94.8916717925729,
                29.3940648825379
              ],
              [
                -94.8989876108307,
                29.309011197397
              ],
              [
                -94.9513348156531,
                29.3261576092045
              ],
              [
                -95.0665722798024,
                29.196116778149
              ]
            ]
          ],
          [
            [
              [
                -94.9136283130532,
                29.2578100015359
              ],
              [
                -94.7675751124181,
                29.3426867758819
              ],
              [
                -94.7486000180172,
                29.3197268111572
              ],
              [
                -95.1056215949094,
                29.0972006946746
              ],
              [
                -94.9136283130532,
                29.2578100015359
              ]
            ]
          ]
        ]
      },
      "properties": {
        "name": "Galveston"
      }
    },
    {
      "type": "Feature",
      "geometry": {
        "type": "Polygon",
        "coordinates": [
          [
            [
              -95.2165434199425,
              29.5667549950113
            ],
            [
              -95.2551645228593,
              29.5615677011272
            ],
            [
              -95.252936690142,
              29.5729409153641
            ],
            [
              -95.2728423923078,
              29.6013350202211
            ],
            [
              -95.289955597726,
              29.6052889117295
            ],
            [
              -95.3320711939291,
              29.6034353113932
            ],
            [
              -95.3451864744054,
              29.5943662890278
            ],
            [
              -95.3852040070099,
              29.5924020870674
            ],
            [
              -95.398288774907,
              29.5837812214473
            ],
            [
              -95.4212310744543,
              29.5865851150835
            ],
            [
              -95.4894856938723,
              29.6155879174041
            ],
            [
              -95.4849155933143,
              29.5933794220759
            ],
            [
              -95.5018305964776,
              29.5816953836021
            ],
            [
              -95.5006400878466,
              29.6229309845867
            ],
            [
              -95.6080035970168,
              29.6685977994994
            ],
            [
              -95.8343965742214,
              29.7957902890529
            ],
            [
              -95.9645502862791,
              30.1590057123161
            ],
            [
              -95.918680813964,
              30.1353213199033
            ],
            [
              -95.9031316243014,
              30.1187089041346
            ],
            [
              -95.8757336075153,
              30.1172212993372
            ],
            [
              -95.8466951122114,
              30.085431025261
            ],
            [
              -95.8263926947114,
              30.0796194927012
            ],
            [
              -95.8122014961394,
              30.0886979952058
            ],
            [
              -95.7736946211297,
              30.087675694291
            ],
            [
              -95.7158925027554,
              30.1023806853265
            ],
            [
              -95.674196519272,
              30.1016579153679
            ],
            [
              -95.5848382810796,
              30.1425308880762
            ],
            [
              -95.5702122912043,
              30.1588915880171
            ],
            [
              -95.5440656009916,
              30.1633298990986
            ],
            [
              -95.5112581027963,
              30.1445813955664
            ],
            [
              -95.4915354761058,
              30.1089515096927
            ],
            [
              -95.4727591020005,
              30.1045113854699
            ],
            [
              -95.4288737243971,
              30.1146008956089
            ],
            [
              -95.3975388078276,
              30.0890032246065
            ],
            [
              -95.3534167893719,
              30.0752249042291
            ],
            [
              -95.3284525781642,
              30.0590395091577
            ],
            [
              -95.3097903801618,
              30.0344086051398
            ],
            [
              -95.2899839863396,
              30.0298921217629
            ],
            [
              -95.284063509885,
              30.041093605609
            ],
            [
              -95.2564900846212,
              30.0431096116089
            ],
            [
              -95.0953547077392,
              30.168906189515
            ],
            [
              -95.0516439097488,
              30.0514505800039
            ],
            [
              -95.061241592337,
              30.0147562247271
            ],
            [
              -95.0452192763819,
              30.0002795858975
            ],
            [
              -95.0106726129735,
              29.9954997825879
            ],
            [
              -94.9877382912483,
              29.964651202341
            ],
            [
              -95.0032723023272,
              29.9172229982823
            ],
            [
              -94.9829700920434,
              29.8869465936513
            ],
            [
              -94.9795979080942,
              29.8730347742642
            ],
            [
              -94.9550686954059,
              29.8604406942289
            ],
            [
              -94.9416482891371,
              29.8387241818635
            ],
            [
              -94.9149140893129,
              29.8365629173369
            ],
            [
              -94.9230702208948,
              29.8066739033131
            ],
            [
              -94.9203769806869,
              29.7648107999984
            ],
            [
              -94.9438609950749,
              29.7250801063602
            ],
            [
              -94.9300283840641,
              29.7189326246045
            ],
            [
              -94.9190874227324,
              29.7000728977998
            ],
            [
              -94.9327901092122,
              29.6824361089546
            ],
            [
              -95.0884724892918,
              29.8042053890284
            ],
            [
              -95.0406046243501,
              29.7118060983069
            ],
            [
              -94.9895395177005,
              29.679928586228
            ],
            [
              -95.0143278023903,
              29.5594945034676
            ],
            [
              -95.0649197827474,
              29.5650188862365
            ],
            [
              -95.0855960181963,
              29.5439300834174
            ],
            [
              -95.1077067074979,
              29.5339151192912
            ],
            [
              -95.1148708953322,
              29.5190953823083
            ],
            [
              -95.1613124914592,
              29.5055753050676
            ],
            [
              -95.1747024887568,
              29.5098403834411
            ],
            [
              -95.1937612984854,
              29.5340883001951
            ],
            [
              -95.2032907033496,
              29.5689253252448
            ],
            [
              -95.2165434199425,
              29.5667549950113
            ]
          ]
        ]
      },
      "properties": {
        "name": "Harris"
      }
    },
    {
      "type": "Feature",
      "geometry": {
        "type": "Polygon",
        "coordinates": [
          [
            [
              -94.4504546126498,
              29.8960160822532
            ],
            [
              -94.9829700920434,
              29.8869465936513
            ],
            [
              -95.0032723023272,
              29.9172229982823
            ],
            [
              -94.9877382912483,
              29.964651202341
            ],
            [
              -95.0106726129735,
              29.9954997825879
            ],
            [
              -95.0452192763819,
              30.0002795858975
            ],
            [
              -95.061241592337,
              30.0147562247271
            ],
            [
              -95.0516439097488,
              30.0514505800039
            ],
            [
              -95.0953547077392,
              30.168906189515
            ],
            [
              -95.1627797890731,
              30.3533125107708
            ],
            [
              -94.8482835783362,
              30.4910824009071
            ],
            [
              -94.7336640845739,
              30.4897807208074
            ],
            [
              -94.6085184244237,
              30.1157717187048
            ],
            [
              -94.476861877181,
              30.1160840970628
            ],
            [
              -94.4518748203918,
              30.1102363016755
            ],
            [
              -94.4504546126498,
              29.8960160822532
            ]
          ]
        ]
      },
      "properties": {
        "name": "Liberty"
      }
    },
    {
      "type": "Feature",
      "geometry": {
        "type": "Polygon",
        "coordinates": [
          [
            [
              -95.0953547077392,
              30.168906189515
            ],
            [
              -95.2564900846212,
              30.0431096116089
            ],
            [
              -95.284063509885,
              30.041093605609
            ],
            [
              -95.2899839863396,
              30.0298921217629
            ],
            [
              -95.3097903801618,
              30.0344086051398
            ],
            [
              -95.3284525781642,
              30.0590395091577
            ],
            [
              -95.3534167893719,
              30.0752249042291
            ],
            [
              -95.3975388078276,
              30.0890032246065
            ],
            [
              -95.4288737243971,
              30.1146008956089
            ],
            [
              -95.4727591020005,
              30.1045113854699
            ],
            [
              -95.4915354761058,
              30.1089515096927
            ],
            [
              -95.5112581027963,
              30.1445813955664
            ],
            [
              -95.5440656009916,
              30.1633298990986
            ],
            [
              -95.5702122912043,
              30.1588915880171
            ],
            [
              -95.5848382810796,
              30.1425308880762
            ],
            [
              -95.674196519272,
              30.1016579153679
            ],
            [
              -95.7158925027554,
              30.1023806853265
            ],
            [
              -95.7736946211297,
              30.087675694291
            ],
            [
              -95.8122014961394,
              30.0886979952058
            ],
            [
              -95.8062502998893,
              30.2469551914592
            ],
            [
              -95.8019393231369,
              30.3521109160754
            ],
            [
              -95.8273301924137,
              30.6341216943301
            ],
            [
              -95.5978482957477,
              30.5217634986944
            ],
            [
              -95.3595556198529,
              30.5193074173793
            ],
            [
              -95.31447911197,
              30.4162123020408
            ],
            [
              -95.2468352103734,
              30.3844605183658
            ],
            [
              -95.208191002855,
              30.3562193908376
            ],
            [
              -95.2221830148953,
              30.3252246195911
            ],
            [
              -95.1627797890731,
              30.3533125107708
            ],
            [
              -95.0953547077392,
              30.168906189515
            ]
          ]
        ]
      },
      "properties": {
        "name": "Montgomery"
      }
    },
    {
      "type": "Feature",
      "geometry": {
        "type": "Polygon",
        "coordinates": [
          [
            [
              -95.8343965742214,
              29.7957902890529
            ],
            [
              -95.9528085899094,
              29.742031216939
            ],
            [
              -95.9759491953197,
              29.7419723157461
            ],
            [
              -95.9747284849337,
              29.7345911207905
            ],
            [
              -96.0457297027202,
              29.7344408890761
            ],
            [
              -96.0526880213015,
              29.7979549208421
            ],
            [
              -96.0572199940864,
              29.8022442953102
            ],
            [
              -96.0680311862993,
              29.7962174133585
            ],
            [
              -96.0786286868494,
              29.8057671772102
            ],
            [
              -96.0984885942443,
              29.808771189851
            ],
            [
              -96.101059680527,
              29.8212371066925
            ],
            [
              -96.1161664118886,
              29.8245271812391
            ],
            [
              -96.1265578877736,
              29.8386466830204
            ],
            [
              -96.1004264797526,
              29.8569658864776
            ],
            [
              -96.1149379827007,
              29.8730651832353
            ],
            [
              -96.0962149149519,
              29.8792714107717
            ],
            [
              -96.1270767052289,
              29.8950351209618
            ],
            [
              -96.1213543792252,
              29.9159119934555
            ],
            [
              -96.1336533834516,
              29.9346775923207
            ],
            [
              -96.127480983953,
              29.9427053016887
            ],
            [
              -96.1110315954965,
              29.944869985282
            ],
            [
              -96.1250624087623,
              29.960490509107
            ],
            [
              -96.0965735025131,
              29.9608509098095
            ],
            [
              -96.1050499902752,
              29.9712340970484
            ],
            [
              -96.1055001155742,
              29.9950748858562
            ],
            [
              -96.0923238099393,
              30.0060587927366
            ],
            [
              -96.1000372242,
              30.0214524148688
            ],
            [
              -96.1157313097611,
              30.0243018960597
            ],
            [
              -96.1171273768208,
              30.0394703778363
            ],
            [
              -96.127717210373,
              30.0499242257849
            ],
            [
              -96.1485383935242,
              30.0561553192602
            ],
            [
              -96.1575564925189,
              30.0665499033877
            ],
            [
              -96.1424345825739,
              30.0738051109193
            ],
            [
              -96.1577395161904,
              30.0853364828888
            ],
            [
              -96.1673298944091,
              30.083383522405
            ],
            [
              -96.1640567079793,
              30.0970108858114
            ],
            [
              -96.1705952066249,
              30.1041096969478
            ],
            [
              -96.198962010753,
              30.1073884782139
            ],
            [
              -96.1905464963453,
              30.1180881881337
            ],
            [
              -96.2003579742046,
              30.1344601813553
            ],
            [
              -96.1832830001675,
              30.1379886062876
            ],
            [
              -96.1795062784741,
              30.1511392171187
            ],
            [
              -96.1646516255686,
              30.1410019954594
            ],
            [
              -96.1555571156156,
              30.1434298953772
            ],
            [
              -96.1732878769884,
              30.1939705897351
            ],
            [
              -96.1575403814626,
              30.2140273006759
            ],
            [
              -96.141876912089,
              30.2098140781459
            ],
            [
              -96.121780622862,
              30.2210115212772
            ],
            [
              -96.1142884118498,
              30.2115876930453
            ],
            [
              -96.1015392823244,
              30.2239563219006
            ],
            [
              -95.8062502998893,
              30.2469551914592
            ],
            [
              -95.8122014961394,
              30.0886979952058
            ],
            [
              -95.8263926947114,
              30.0796194927012
            ],
            [
              -95.8466951122114,
              30.085431025261
            ],
            [
              -95.8757336075153,
              30.1172212993372
            ],
            [
              -95.9031316243014,
              30.1187089041346
            ],
            [
              -95.918680813964,
              30.1353213199033
            ],
            [
              -95.9645502862791,
              30.1590057123161
            ],
            [
              -95.8343965742214,
              29.7957902890529
            ]
          ]
        ]
      },
      "properties": {
        "name": "Waller"
      }
    }
  ]
}
